COSMOS 2251 DEB         
1 35475U 93036ALV 17346.35203312  .00000650  00000-0  21000-3 0  9992
2 35475  74.0327 228.1743 0038628 294.7401  64.9736 14.40681469453774
